[{"OBJECT_NAME":"ONEWEB-0300","OBJECT_ID":"2021-075Q","EPOCH":"2026-01-26T21:54:49.693824","MEAN_MOTION":13.12443644,"ECCENTRICITY":0.00018316,"INCLINATION":87.8939,"RA_OF_ASC_NODE":18.698,"ARG_OF_PERICENTER":75.7602,"MEAN_ANOMALY":284.3729,"EPHEMERIS_TYPE":0,"CLASSIFICATION_TYPE":"U","NORAD_CAT_ID":49089,"ELEMENT_SET_NO":999,"REV_AT_EPOCH":21667,"BSTAR":-0.00071059073,"MEAN_MOTION_DOT":-2.43e-6,"MEAN_MOTION_DDOT":0},{"OBJECT_NAME":"ONEWEB-0301","OBJECT_ID":"2021-075R","EPOCH":"2026-01-26T21:31:39.432288","MEAN_MOTION":13.12440334,"ECCENTRICITY":0.00017775,"INCLINATION":87.8938,"RA_OF_ASC_NODE":18.7018,"ARG_OF_PERICENTER":74.1839,"MEAN_ANOMALY":285.9485,"EPHEMERIS_TYPE":0,"CLASSIFICATION_TYPE":"U","NORAD_CAT_ID":49090,"ELEMENT_SET_NO":999,"REV_AT_EPOCH":21603,"BSTAR":0.00065030767,"MEAN_MOTION_DOT":2.47e-6,"MEAN_MOTION_DDOT":0},{"OBJECT_NAME":"ONEWEB-0302","OBJECT_ID":"2021-075S","EPOCH":"2026-01-26T23:01:56.159328","MEAN_MOTION":13.12443296,"ECCENTRICITY":0.0001882,"INCLINATION":87.8943,"RA_OF_ASC_NODE":18.6975,"ARG_OF_PERICENTER":101.0354,"MEAN_ANOMALY":259.0986,"EPHEMERIS_TYPE":0,"CLASSIFICATION_TYPE":"U","NORAD_CAT_ID":49091,"ELEMENT_SET_NO":999,"REV_AT_EPOCH":21602,"BSTAR":0.0013213993,"MEAN_MOTION_DOT":4.88e-6,"MEAN_MOTION_DDOT":0},{"OBJECT_NAME":"ONEWEB-0304","OBJECT_ID":"2021-075T","EPOCH":"2026-01-27T07:21:43.419456","MEAN_MOTION":13.17649129,"ECCENTRICITY":0.00019783,"INCLINATION":87.9097,"RA_OF_ASC_NODE":33.8602,"ARG_OF_PERICENTER":91.1901,"MEAN_ANOMALY":268.9457,"EPHEMERIS_TYPE":0,"CLASSIFICATION_TYPE":"U","NORAD_CAT_ID":49092,"ELEMENT_SET_NO":999,"REV_AT_EPOCH":21502,"BSTAR":0.00034460635,"MEAN_MOTION_DOT":1.47e-6,"MEAN_MOTION_DDOT":0},{"OBJECT_NAME":"ONEWEB-0305","OBJECT_ID":"2021-075U","EPOCH":"2026-01-26T11:09:10.469664","MEAN_MOTION":13.17650842,"ECCENTRICITY":0.00022471,"INCLINATION":87.9096,"RA_OF_ASC_NODE":34.006,"ARG_OF_PERICENTER":92.468,"MEAN_ANOMALY":267.6709,"EPHEMERIS_TYPE":0,"CLASSIFICATION_TYPE":"U","NORAD_CAT_ID":49093,"ELEMENT_SET_NO":999,"REV_AT_EPOCH":21494,"BSTAR":0.00015766022,"MEAN_MOTION_DOT":7.4e-7,"MEAN_MOTION_DDOT":0},{"OBJECT_NAME":"ONEWEB-0308","OBJECT_ID":"2021-075V","EPOCH":"2026-01-26T22:52:10.336224","MEAN_MOTION":13.12442584,"ECCENTRICITY":0.0001782,"INCLINATION":87.8939,"RA_OF_ASC_NODE":18.6924,"ARG_OF_PERICENTER":86.5808,"MEAN_ANOMALY":273.5524,"EPHEMERIS_TYPE":0,"CLASSIFICATION_TYPE":"U","NORAD_CAT_ID":49094,"ELEMENT_SET_NO":999,"REV_AT_EPOCH":21603,"BSTAR":0.0011213061,"MEAN_MOTION_DOT":4.16e-6,"MEAN_MOTION_DDOT":0},{"OBJECT_NAME":"ONEWEB-0309","OBJECT_ID":"2021-075W","EPOCH":"2026-01-26T23:59:27.090240","MEAN_MOTION":13.17651192,"ECCENTRICITY":0.00017951,"INCLINATION":87.9096,"RA_OF_ASC_NODE":33.9146,"ARG_OF_PERICENTER":104.1661,"MEAN_ANOMALY":255.967,"EPHEMERIS_TYPE":0,"CLASSIFICATION_TYPE":"U","NORAD_CAT_ID":49095,"ELEMENT_SET_NO":999,"REV_AT_EPOCH":21498,"BSTAR":4.7209119e-5,"MEAN_MOTION_DOT":3.1e-7,"MEAN_MOTION_DDOT":0},{"OBJECT_NAME":"ONEWEB-0310","OBJECT_ID":"2021-075X","EPOCH":"2026-01-26T12:15:25.957440","MEAN_MOTION":13.12440935,"ECCENTRICITY":0.00017561,"INCLINATION":87.893,"RA_OF_ASC_NODE":18.8138,"ARG_OF_PERICENTER":86.692,"MEAN_ANOMALY":273.441,"EPHEMERIS_TYPE":0,"CLASSIFICATION_TYPE":"U","NORAD_CAT_ID":49096,"ELEMENT_SET_NO":999,"REV_AT_EPOCH":21660,"BSTAR":0.0008463281,"MEAN_MOTION_DOT":3.17e-6,"MEAN_MOTION_DDOT":0},{"OBJECT_NAME":"ONEWEB-0311","OBJECT_ID":"2021-075Y","EPOCH":"2026-01-27T00:09:11.765088","MEAN_MOTION":13.17649104,"ECCENTRICITY":0.00021736,"INCLINATION":87.9093,"RA_OF_ASC_NODE":33.9082,"ARG_OF_PERICENTER":88.685,"MEAN_ANOMALY":271.4531,"EPHEMERIS_TYPE":0,"CLASSIFICATION_TYPE":"U","NORAD_CAT_ID":49097,"ELEMENT_SET_NO":999,"REV_AT_EPOCH":21503,"BSTAR":0.00017274533,"MEAN_MOTION_DOT":8.0e-7,"MEAN_MOTION_DDOT":0},{"OBJECT_NAME":"ONEWEB-0312","OBJECT_ID":"2021-075Z","EPOCH":"2026-01-27T00:31:02.380512","MEAN_MOTION":13.1765159,"ECCENTRICITY":0.0002082,"INCLINATION":87.9085,"RA_OF_ASC_NODE":33.9269,"ARG_OF_PERICENTER":97.3054,"MEAN_ANOMALY":262.8314,"EPHEMERIS_TYPE":0,"CLASSIFICATION_TYPE":"U","NORAD_CAT_ID":49098,"ELEMENT_SET_NO":999,"REV_AT_EPOCH":21501,"BSTAR":2.5514488e-5,"MEAN_MOTION_DOT":2.3e-7,"MEAN_MOTION_DDOT":0},{"OBJECT_NAME":"ONEWEB-0313","OBJECT_ID":"2021-075AA","EPOCH":"2026-01-27T02:27:29.208096","MEAN_MOTION":13.17651077,"ECCENTRICITY":0.00018842,"INCLINATION":87.9081,"RA_OF_ASC_NODE":33.9178,"ARG_OF_PERICENTER":87.5269,"MEAN_ANOMALY":272.6079,"EPHEMERIS_TYPE":0,"CLASSIFICATION_TYPE":"U","NORAD_CAT_ID":49099,"ELEMENT_SET_NO":999,"REV_AT_EPOCH":21501,"BSTAR":-7.8408632e-5,"MEAN_MOTION_DOT":-1.8e-7,"MEAN_MOTION_DDOT":0},{"OBJECT_NAME":"ONEWEB-0314","OBJECT_ID":"2021-075AB","EPOCH":"2026-01-27T07:07:07.346784","MEAN_MOTION":13.17651762,"ECCENTRICITY":0.00023278,"INCLINATION":87.9103,"RA_OF_ASC_NODE":33.8375,"ARG_OF_PERICENTER":96.7886,"MEAN_ANOMALY":263.3511,"EPHEMERIS_TYPE":0,"CLASSIFICATION_TYPE":"U","NORAD_CAT_ID":49100,"ELEMENT_SET_NO":999,"REV_AT_EPOCH":21501,"BSTAR":0.00038541935,"MEAN_MOTION_DOT":1.63e-6,"MEAN_MOTION_DDOT":0},{"OBJECT_NAME":"ONEWEB-0315","OBJECT_ID":"2021-075AC","EPOCH":"2026-01-27T05:54:13.630176","MEAN_MOTION":13.1244397,"ECCENTRICITY":0.00021837,"INCLINATION":87.8944,"RA_OF_ASC_NODE":18.6196,"ARG_OF_PERICENTER":81.6524,"MEAN_ANOMALY":278.4852,"EPHEMERIS_TYPE":0,"CLASSIFICATION_TYPE":"U","NORAD_CAT_ID":49101,"ELEMENT_SET_NO":999,"REV_AT_EPOCH":21668,"BSTAR":-2.391173e-5,"MEAN_MOTION_DOT":4.0e-8,"MEAN_MOTION_DDOT":0},{"OBJECT_NAME":"ONEWEB-0316","OBJECT_ID":"2021-075AD","EPOCH":"2026-01-26T15:34:52.168224","MEAN_MOTION":13.18685974,"ECCENTRICITY":0.00018919,"INCLINATION":87.9192,"RA_OF_ASC_NODE":3.5651,"ARG_OF_PERICENTER":83.2546,"MEAN_ANOMALY":276.8801,"EPHEMERIS_TYPE":0,"CLASSIFICATION_TYPE":"U","NORAD_CAT_ID":49102,"ELEMENT_SET_NO":999,"REV_AT_EPOCH":21855,"BSTAR":0.00022788517,"MEAN_MOTION_DOT":1.03e-6,"MEAN_MOTION_DDOT":0},{"OBJECT_NAME":"ONEWEB-0317","OBJECT_ID":"2021-075AE","EPOCH":"2026-01-27T05:59:05.082432","MEAN_MOTION":13.12442674,"ECCENTRICITY":0.00012297,"INCLINATION":87.8942,"RA_OF_ASC_NODE":18.6412,"ARG_OF_PERICENTER":107.4298,"MEAN_ANOMALY":252.6965,"EPHEMERIS_TYPE":0,"CLASSIFICATION_TYPE":"U","NORAD_CAT_ID":49103,"ELEMENT_SET_NO":999,"REV_AT_EPOCH":21670,"BSTAR":0.00018307695,"MEAN_MOTION_DOT":7.9e-7,"MEAN_MOTION_DDOT":0},{"OBJECT_NAME":"ONEWEB-0318","OBJECT_ID":"2021-075AF","EPOCH":"2026-01-26T15:30:06.948864","MEAN_MOTION":13.18686447,"ECCENTRICITY":0.00021047,"INCLINATION":87.9203,"RA_OF_ASC_NODE":3.5541,"ARG_OF_PERICENTER":82.3252,"MEAN_ANOMALY":277.8119,"EPHEMERIS_TYPE":0,"CLASSIFICATION_TYPE":"U","NORAD_CAT_ID":49104,"ELEMENT_SET_NO":999,"REV_AT_EPOCH":21851,"BSTAR":0.00018652211,"MEAN_MOTION_DOT":8.6e-7,"MEAN_MOTION_DDOT":0},{"OBJECT_NAME":"ONEWEB-0319","OBJECT_ID":"2021-075AG","EPOCH":"2026-01-27T00:11:37.103712","MEAN_MOTION":13.1764917,"ECCENTRICITY":0.00023338,"INCLINATION":87.9082,"RA_OF_ASC_NODE":33.9241,"ARG_OF_PERICENTER":82.0958,"MEAN_ANOMALY":278.0439,"EPHEMERIS_TYPE":0,"CLASSIFICATION_TYPE":"U","NORAD_CAT_ID":49105,"ELEMENT_SET_NO":999,"REV_AT_EPOCH":21501,"BSTAR":0.00018519126,"MEAN_MOTION_DOT":8.5e-7,"MEAN_MOTION_DDOT":0}]
