ONEWEB-0300             
1 49089U 21075Q   26026.91307516 -.00000243  00000+0 -71059-3 0  9998
2 49089  87.8939  18.6980 0001831  75.7602 284.3729 13.12443644216677
ONEWEB-0301             
1 49090U 21075R   26026.89698417  .00000247  00000+0  65031-3 0  9995
2 49090  87.8938  18.7018 0001777  74.1839 285.9485 13.12440334216034
ONEWEB-0302             
1 49091U 21075S   26026.95967777  .00000488  00000+0  13214-2 0  9993
2 49091  87.8943  18.6975 0001882 101.0354 259.0986 13.12443296216028
ONEWEB-0304             
1 49092U 21075T   26027.30675254  .00000147  00000+0  34461-3 0  9990
2 49092  87.9097  33.8602 0001978  91.1901 268.9457 13.17649129215028
ONEWEB-0305             
1 49093U 21075U   26026.46470451  .00000074  00000+0  15766-3 0  9995
2 49093  87.9096  34.0060 0002247  92.4680 267.6709 13.17650842214947
ONEWEB-0308             
1 49094U 21075V   26026.95289741  .00000416  00000+0  11213-2 0  9992
2 49094  87.8939  18.6924 0001782  86.5808 273.5524 13.12442584216039
ONEWEB-0309             
1 49095U 21075W   26026.99961910  .00000031  00000+0  47209-4 0  9991
2 49095  87.9096  33.9146 0001795 104.1661 255.9670 13.17651192214989
ONEWEB-0310             
1 49096U 21075X   26026.51071710  .00000317  00000+0  84633-3 0  9998
2 49096  87.8930  18.8138 0001756  86.6920 273.4410 13.12440935216602
ONEWEB-0311             
1 49097U 21075Y   26027.00638617  .00000080  00000+0  17275-3 0  9994
2 49097  87.9093  33.9082 0002173  88.6850 271.4531 13.17649104215030
ONEWEB-0312             
1 49098U 21075Z   26027.02155533  .00000023  00000+0  25514-4 0  9991
2 49098  87.9085  33.9269 0002082  97.3054 262.8314 13.17651590215014
ONEWEB-0313             
1 49099U 21075AA  26027.10242139 -.00000018  00000+0 -78409-4 0  9997
2 49099  87.9081  33.9178 0001884  87.5269 272.6079 13.17651077215015
ONEWEB-0314             
1 49100U 21075AB  26027.29661281  .00000163  00000+0  38542-3 0  9995
2 49100  87.9103  33.8375 0002327  96.7886 263.3511 13.17651762215010
ONEWEB-0315             
1 49101U 21075AC  26027.24599109  .00000004  00000+0 -23912-4 0  9991
2 49101  87.8944  18.6196 0002183  81.6524 278.4852 13.12443970216681
ONEWEB-0316             
1 49102U 21075AD  26026.64921491  .00000103  00000+0  22789-3 0  9997
2 49102  87.9192   3.5651 0001891  83.2546 276.8801 13.18685974218556
ONEWEB-0317             
1 49103U 21075AE  26027.24936438  .00000079  00000+0  18308-3 0  9996
2 49103  87.8942  18.6412 0001229 107.4298 252.6965 13.12442674216709
ONEWEB-0318             
1 49104U 21075AF  26026.64591376  .00000086  00000+0  18652-3 0  9998
2 49104  87.9203   3.5541 0002104  82.3252 277.8119 13.18686447218516
ONEWEB-0319             
1 49105U 21075AG  26027.00806833  .00000085  00000+0  18519-3 0  9998
2 49105  87.9082  33.9241 0002333  82.0958 278.0439 13.17649170215011
